{
  "norad_id": 64324,
  "name": "STARLINK-11696 [DTC]",
  "history": [
    {
      "epoch": "2026-03-28T20:53:58.824672Z",
      "apogee_km": 357.67905114698806,
      "perigee_km": 355.1065954450869,
      "latitude_deg": -4.85765224700256e-05,
      "longitude_deg": 133.5865903910222,
      "height_km": 356.2859566742169,
      "semi_major_axis_km": 6734.529823296038,
      "eccentricity": 0.00019099,
      "inclination_deg": 42.9987,
      "raan_deg": 273.3668,
      "arg_perigee_deg": 264.6266,
      "mean_anomaly_deg": 95.4383,
      "mean_motion_rev_day": 15.70875771
    }
  ]
}